[{"OBJECT_NAME":"STARLINK-3528","OBJECT_ID":"2022-016A","EPOCH":"2025-12-02T05:43:50.261088","MEAN_MOTION":15.08835462,"ECCENTRICITY":0.00011581,"INCLINATION":53.2186,"RA_OF_ASC_NODE":46.5722,"ARG_OF_PERICENTER":68.1301,"MEAN_ANOMALY":291.9814,"EPHEMERIS_TYPE":0,"CLASSIFICATION_TYPE":"U","NORAD_CAT_ID":51714,"ELEMENT_SET_NO":999,"REV_AT_EPOCH":20871,"BSTAR":-6.276223e-6,"MEAN_MOTION_DOT":-3.88e-6,"MEAN_MOTION_DDOT":0},{"OBJECT_NAME":"STARLINK-3533","OBJECT_ID":"2022-016B","EPOCH":"2025-12-02T05:33:14.561856","MEAN_MOTION":15.08788452,"ECCENTRICITY":0.00018713,"INCLINATION":53.2192,"RA_OF_ASC_NODE":46.6347,"ARG_OF_PERICENTER":93.9158,"MEAN_ANOMALY":266.2048,"EPHEMERIS_TYPE":0,"CLASSIFICATION_TYPE":"U","NORAD_CAT_ID":51715,"ELEMENT_SET_NO":999,"REV_AT_EPOCH":20984,"BSTAR":0.00056925764,"MEAN_MOTION_DOT":8.771e-5,"MEAN_MOTION_DDOT":0},{"OBJECT_NAME":"STARLINK-3543","OBJECT_ID":"2022-016C","EPOCH":"2025-12-02T05:42:28.969056","MEAN_MOTION":15.08836508,"ECCENTRICITY":0.00013027,"INCLINATION":53.2198,"RA_OF_ASC_NODE":46.5981,"ARG_OF_PERICENTER":101.6547,"MEAN_ANOMALY":258.4592,"EPHEMERIS_TYPE":0,"CLASSIFICATION_TYPE":"U","NORAD_CAT_ID":51716,"ELEMENT_SET_NO":999,"REV_AT_EPOCH":20871,"BSTAR":4.4105853e-5,"MEAN_MOTION_DOT":4.14e-6,"MEAN_MOTION_DDOT":0},{"OBJECT_NAME":"STARLINK-3445","OBJECT_ID":"2022-016D","EPOCH":"2025-12-01T12:19:55.048512","MEAN_MOTION":15.08834387,"ECCENTRICITY":0.0001286,"INCLINATION":53.2188,"RA_OF_ASC_NODE":49.9365,"ARG_OF_PERICENTER":90.7021,"MEAN_ANOMALY":269.4118,"EPHEMERIS_TYPE":0,"CLASSIFICATION_TYPE":"U","NORAD_CAT_ID":51717,"ELEMENT_SET_NO":999,"REV_AT_EPOCH":20860,"BSTAR":4.4870975e-5,"MEAN_MOTION_DOT":4.26e-6,"MEAN_MOTION_DDOT":0},{"OBJECT_NAME":"STARLINK-3546","OBJECT_ID":"2022-016E","EPOCH":"2025-12-01T22:34:51.390912","MEAN_MOTION":15.10215067,"ECCENTRICITY":0.00024094,"INCLINATION":53.2164,"RA_OF_ASC_NODE":47.7892,"ARG_OF_PERICENTER":27.1601,"MEAN_ANOMALY":332.9517,"EPHEMERIS_TYPE":0,"CLASSIFICATION_TYPE":"U","NORAD_CAT_ID":51718,"ELEMENT_SET_NO":999,"REV_AT_EPOCH":20979,"BSTAR":0.00081024845,"MEAN_MOTION_DOT":0.00013125,"MEAN_MOTION_DDOT":0},{"OBJECT_NAME":"STARLINK-3540","OBJECT_ID":"2022-016F","EPOCH":"2025-12-02T04:01:47.371296","MEAN_MOTION":15.08836585,"ECCENTRICITY":0.0001279,"INCLINATION":53.2177,"RA_OF_ASC_NODE":46.9912,"ARG_OF_PERICENTER":88.2049,"MEAN_ANOMALY":271.9089,"EPHEMERIS_TYPE":0,"CLASSIFICATION_TYPE":"U","NORAD_CAT_ID":51719,"ELEMENT_SET_NO":999,"REV_AT_EPOCH":20870,"BSTAR":7.3987384e-5,"MEAN_MOTION_DOT":8.9e-6,"MEAN_MOTION_DDOT":0},{"OBJECT_NAME":"STARLINK-3526","OBJECT_ID":"2022-016G","EPOCH":"2025-12-02T05:06:43.201728","MEAN_MOTION":15.08851279,"ECCENTRICITY":0.00019868,"INCLINATION":53.2198,"RA_OF_ASC_NODE":46.682,"ARG_OF_PERICENTER":118.2557,"MEAN_ANOMALY":241.8636,"EPHEMERIS_TYPE":0,"CLASSIFICATION_TYPE":"U","NORAD_CAT_ID":51720,"ELEMENT_SET_NO":999,"REV_AT_EPOCH":20870,"BSTAR":0.00022016279,"MEAN_MOTION_DOT":3.219e-5,"MEAN_MOTION_DDOT":0},{"OBJECT_NAME":"STARLINK-3524","OBJECT_ID":"2022-016H","EPOCH":"2025-12-02T05:22:39.059616","MEAN_MOTION":15.08837892,"ECCENTRICITY":0.000125,"INCLINATION":53.218,"RA_OF_ASC_NODE":46.6683,"ARG_OF_PERICENTER":85.3665,"MEAN_ANOMALY":274.747,"EPHEMERIS_TYPE":0,"CLASSIFICATION_TYPE":"U","NORAD_CAT_ID":51721,"ELEMENT_SET_NO":999,"REV_AT_EPOCH":20871,"BSTAR":9.0370699e-5,"MEAN_MOTION_DOT":1.151e-5,"MEAN_MOTION_DDOT":0},{"OBJECT_NAME":"STARLINK-3535","OBJECT_ID":"2022-016J","EPOCH":"2025-12-02T05:00:04.087296","MEAN_MOTION":15.08844084,"ECCENTRICITY":0.00012584,"INCLINATION":53.2177,"RA_OF_ASC_NODE":46.7313,"ARG_OF_PERICENTER":92.6681,"MEAN_ANOMALY":267.4455,"EPHEMERIS_TYPE":0,"CLASSIFICATION_TYPE":"U","NORAD_CAT_ID":51722,"ELEMENT_SET_NO":999,"REV_AT_EPOCH":20870,"BSTAR":7.806915e-6,"MEAN_MOTION_DOT":-1.64e-6,"MEAN_MOTION_DDOT":0},{"OBJECT_NAME":"STARLINK-3529","OBJECT_ID":"2022-016L","EPOCH":"2025-12-02T04:49:28.253280","MEAN_MOTION":15.08838955,"ECCENTRICITY":0.00013257,"INCLINATION":53.2186,"RA_OF_ASC_NODE":46.7664,"ARG_OF_PERICENTER":90.4747,"MEAN_ANOMALY":269.6398,"EPHEMERIS_TYPE":0,"CLASSIFICATION_TYPE":"U","NORAD_CAT_ID":51724,"ELEMENT_SET_NO":999,"REV_AT_EPOCH":20870,"BSTAR":2.806572e-6,"MEAN_MOTION_DOT":-2.43e-6,"MEAN_MOTION_DDOT":0},{"OBJECT_NAME":"STARLINK-3522","OBJECT_ID":"2022-016M","EPOCH":"2025-12-02T05:05:22.004736","MEAN_MOTION":15.08837865,"ECCENTRICITY":0.00012938,"INCLINATION":53.2175,"RA_OF_ASC_NODE":46.717,"ARG_OF_PERICENTER":87.0386,"MEAN_ANOMALY":273.0754,"EPHEMERIS_TYPE":0,"CLASSIFICATION_TYPE":"U","NORAD_CAT_ID":51725,"ELEMENT_SET_NO":999,"REV_AT_EPOCH":20870,"BSTAR":-7.679261e-6,"MEAN_MOTION_DOT":-4.1e-6,"MEAN_MOTION_DDOT":0},{"OBJECT_NAME":"STARLINK-3527","OBJECT_ID":"2022-016N","EPOCH":"2025-12-01T10:44:27.653856","MEAN_MOTION":15.08834498,"ECCENTRICITY":0.00013938,"INCLINATION":53.2198,"RA_OF_ASC_NODE":40.1455,"ARG_OF_PERICENTER":96.5341,"MEAN_ANOMALY":263.581,"EPHEMERIS_TYPE":0,"CLASSIFICATION_TYPE":"U","NORAD_CAT_ID":51726,"ELEMENT_SET_NO":999,"REV_AT_EPOCH":20873,"BSTAR":6.08225e-7,"MEAN_MOTION_DOT":-2.78e-6,"MEAN_MOTION_DDOT":0},{"OBJECT_NAME":"STARLINK-3532","OBJECT_ID":"2022-016P","EPOCH":"2025-12-02T04:54:46.130112","MEAN_MOTION":15.08841706,"ECCENTRICITY":0.00012022,"INCLINATION":53.2175,"RA_OF_ASC_NODE":46.7484,"ARG_OF_PERICENTER":91.0642,"MEAN_ANOMALY":269.0488,"EPHEMERIS_TYPE":0,"CLASSIFICATION_TYPE":"U","NORAD_CAT_ID":51727,"ELEMENT_SET_NO":999,"REV_AT_EPOCH":20870,"BSTAR":4.4611962e-5,"MEAN_MOTION_DOT":4.22e-6,"MEAN_MOTION_DDOT":0},{"OBJECT_NAME":"STARLINK-3523","OBJECT_ID":"2022-016R","EPOCH":"2025-12-01T10:49:45.579936","MEAN_MOTION":15.08840557,"ECCENTRICITY":0.0001466,"INCLINATION":53.2192,"RA_OF_ASC_NODE":40.1317,"ARG_OF_PERICENTER":94.5175,"MEAN_ANOMALY":265.5985,"EPHEMERIS_TYPE":0,"CLASSIFICATION_TYPE":"U","NORAD_CAT_ID":51729,"ELEMENT_SET_NO":999,"REV_AT_EPOCH":20873,"BSTAR":-2.190775e-5,"MEAN_MOTION_DOT":-6.37e-6,"MEAN_MOTION_DDOT":0},{"OBJECT_NAME":"STARLINK-3514","OBJECT_ID":"2022-016T","EPOCH":"2025-12-02T04:08:24.412128","MEAN_MOTION":15.08841509,"ECCENTRICITY":0.0001399,"INCLINATION":53.2181,"RA_OF_ASC_NODE":36.8943,"ARG_OF_PERICENTER":82.8217,"MEAN_ANOMALY":277.2934,"EPHEMERIS_TYPE":0,"CLASSIFICATION_TYPE":"U","NORAD_CAT_ID":51731,"ELEMENT_SET_NO":999,"REV_AT_EPOCH":20884,"BSTAR":0.00015222766,"MEAN_MOTION_DOT":2.136e-5,"MEAN_MOTION_DDOT":0},{"OBJECT_NAME":"STARLINK-3518","OBJECT_ID":"2022-016U","EPOCH":"2025-12-01T13:28:43.901472","MEAN_MOTION":15.08843144,"ECCENTRICITY":0.00013906,"INCLINATION":53.2182,"RA_OF_ASC_NODE":39.6355,"ARG_OF_PERICENTER":104.0808,"MEAN_ANOMALY":256.0339,"EPHEMERIS_TYPE":0,"CLASSIFICATION_TYPE":"U","NORAD_CAT_ID":51732,"ELEMENT_SET_NO":999,"REV_AT_EPOCH":20989,"BSTAR":6.799593e-6,"MEAN_MOTION_DOT":-1.8e-6,"MEAN_MOTION_DDOT":0}]
