STARLINK-3528           
1 51714U 22016A   25336.23877617 -.00000388  00000+0 -62762-5 0  9997
2 51714  53.2186  46.5722 0001158  68.1301 291.9814 15.08835462208719
STARLINK-3533           
1 51715U 22016B   25336.23141854  .00008771  00000+0  56926-3 0  9990
2 51715  53.2192  46.6347 0001871  93.9158 266.2048 15.08788452209844
STARLINK-3543           
1 51716U 22016C   25336.23783529  .00000414  00000+0  44106-4 0  9996
2 51716  53.2198  46.5981 0001302 101.6547 258.4592 15.08836508208710
STARLINK-3445           
1 51717U 22016D   25335.51383158  .00000426  00000+0  44871-4 0  9993
2 51717  53.2188  49.9365 0001286  90.7021 269.4118 15.08834387208606
STARLINK-3546           
1 51718U 22016E   25335.94087258  .00013125  00000+0  81025-3 0  9994
2 51718  53.2164  47.7892 0002409  27.1601 332.9517 15.10215067209799
STARLINK-3540           
1 51719U 22016F   25336.16790939  .00000890  00000+0  73987-4 0  9991
2 51719  53.2177  46.9912 0001279  88.2049 271.9089 15.08836585208703
STARLINK-3526           
1 51720U 22016G   25336.21300002  .00003219  00000+0  22016-3 0  9991
2 51720  53.2198  46.6820 0001986 118.2557 241.8636 15.08851279208707
STARLINK-3524           
1 51721U 22016H   25336.22406319  .00001151  00000+0  90371-4 0  9994
2 51721  53.2180  46.6683 0001250  85.3665 274.7470 15.08837892208711
STARLINK-3535           
1 51722U 22016J   25336.20838064 -.00000164  00000+0  78069-5 0  9994
2 51722  53.2177  46.7313 0001258  92.6681 267.4455 15.08844084208708
STARLINK-3529           
1 51724U 22016L   25336.20102145 -.00000243  00000+0  28066-5 0  9990
2 51724  53.2186  46.7664 0001325  90.4747 269.6398 15.08838955208703
STARLINK-3522           
1 51725U 22016M   25336.21206024 -.00000410  00000+0 -76793-5 0  9990
2 51725  53.2175  46.7170 0001293  87.0386 273.0754 15.08837865208703
STARLINK-3527           
1 51726U 22016N   25335.44754229 -.00000278  00000+0  60823-6 0  9999
2 51726  53.2198  40.1455 0001393  96.5341 263.5810 15.08834498208739
STARLINK-3532           
1 51727U 22016P   25336.20470058  .00000422  00000+0  44612-4 0  9996
2 51727  53.2175  46.7484 0001202  91.0642 269.0488 15.08841706208701
STARLINK-3523           
1 51729U 22016R   25335.45122199 -.00000637  00000+0 -21908-4 0  9997
2 51729  53.2192  40.1317 0001466  94.5175 265.5985 15.08840557208735
STARLINK-3514           
1 51731U 22016T   25336.17250477  .00002136  00000+0  15223-3 0  9997
2 51731  53.2181  36.8943 0001399  82.8217 277.2934 15.08841509208849
STARLINK-3518           
1 51732U 22016U   25335.56161923 -.00000180  00000+0  67996-5 0  9991
2 51732  53.2182  39.6355 0001390 104.0808 256.0339 15.08843144209890
